{"type": "FeatureCollection", "features": [ {"type": "Feature", "properties": {"norad_id": 30663, "name": "FENGYUN 1C DEB", "group": "fengyun-1c-debris", "lat": -71.93359497696191, "lon": -53.074446230647034, "alt_km": 1668.6906628431525, "timestamp": "2025-12-27T06:41:31.204332+00:00", "meta": {"OBJECT_NAME": "FENGYUN 1C DEB", "OBJECT_ID": "1999-025APV", "EPOCH": "2025-12-26T00:15:07.187040", "MEAN_MOTION": 13.23217109, "ECCENTRICITY": 0.06496593, "INCLINATION": 99.3033, "RA_OF_ASC_NODE": 275.6212, "ARG_OF_PERICENTER": 104.3174, "MEAN_ANOMALY": 263.0938, "EPHEMERIS_TYPE": 0, "CLASSIFICATION_TYPE": "U", "NORAD_CAT_ID": 30663, "ELEMENT_SET_NO": 999, "REV_AT_EPOCH": 89223, "BSTAR": 0.0030033194, "MEAN_MOTION_DOT": 3.918e-05, "MEAN_MOTION_DDOT": 0}, "tle": {"line1": "1 30663U 99025APV 25360.01049985  .00003918  00000+0  30033-2 0  9996", "line2": "2 30663  99.3033 275.6212 0649659 104.3174 263.0938 13.23217109892235"}}, "geometry": {"type": "Point", "coordinates": [-53.074446230647034, -71.93359497696191]}}, {"type": "Feature", "properties": {"norad_id": 30665, "name": "FENGYUN 1C DEB", "group": "fengyun-1c-debris", "lat": 64.35446546856731, "lon": 173.02497720995325, "alt_km": 811.1314824120573, "timestamp": "2025-12-27T06:41:31.204347+00:00", "meta": {"OBJECT_NAME": "FENGYUN 1C DEB", "OBJECT_ID": "1999-025APX", "EPOCH": "2025-12-26T21:55:08.007168", "MEAN_MOTION": 14.12417271, "ECCENTRICITY": 0.00678228, "INCLINATION": 99.2092, "RA_OF_ASC_NODE": 332.8996, "ARG_OF_PERICENTER": 161.9807, "MEAN_ANOMALY": 254.9089, "EPHEMERIS_TYPE": 0, "CLASSIFICATION_TYPE": "U", "NORAD_CAT_ID": 30665, "ELEMENT_SET_NO": 999, "REV_AT_EPOCH": 96170, "BSTAR": 0.0015967641, "MEAN_MOTION_DOT": 2.965e-05, "MEAN_MOTION_DDOT": 0}, "tle": {"line1": "1 30665U 99025APX 25360.91328712  .00002965  00000+0  15968-2 0  9996", "line2": "2 30665  99.2092 332.8996 0067822 161.9807 254.9089 14.12417271961700"}}, "geometry": {"type": "Point", "coordinates": [173.02497720995325, 64.35446546856731]}}, {"type": "Feature", "properties": {"norad_id": 30666, "name": "FENGYUN 1C DEB", "group": "fengyun-1c-debris", "lat": 47.62013710793541, "lon": 174.23949058792198, "alt_km": 840.9279521154394, "timestamp": "2025-12-27T06:41:31.204358+00:00", "meta": {"OBJECT_NAME": "FENGYUN 1C DEB", "OBJECT_ID": "1999-025APY", "EPOCH": "2025-12-26T10:15:05.027328", "MEAN_MOTION": 14.02568753, "ECCENTRICITY": 0.0061413, "INCLINATION": 98.8238, "RA_OF_ASC_NODE": 343.6134, "ARG_OF_PERICENTER": 106.5932, "MEAN_ANOMALY": 46.6052, "EPHEMERIS_TYPE": 0, "CLASSIFICATION_TYPE": "U", "NORAD_CAT_ID": 30666, "ELEMENT_SET_NO": 999, "REV_AT_EPOCH": 96302, "BSTAR": 0.00048176, "MEAN_MOTION_DOT": 7.12e-06, "MEAN_MOTION_DDOT": 0}, "tle": {"line1": "1 30666U 99025APY 25360.42714152  .00000712  00000+0  48176-3 0  9996", "line2": "2 30666  98.8238 343.6134 0061413 106.5932  46.6052 14.02568753963020"}}, "geometry": {"type": "Point", "coordinates": [174.23949058792198, 47.62013710793541]}}, {"type": "Feature", "properties": {"norad_id": 30668, "name": "FENGYUN 1C DEB", "group": "fengyun-1c-debris", "lat": -25.54008045778039, "lon": -109.7978454999887, "alt_km": 798.78942108922, "timestamp": "2025-12-27T06:41:31.204369+00:00", "meta": {"OBJECT_NAME": "FENGYUN 1C DEB", "OBJECT_ID": "1999-025AQA", "EPOCH": "2025-12-26T16:50:50.793792", "MEAN_MOTION": 14.12415102, "ECCENTRICITY": 0.00800357, "INCLINATION": 99.1307, "RA_OF_ASC_NODE": 74.022, "ARG_OF_PERICENTER": 207.52, "MEAN_ANOMALY": 306.7408, "EPHEMERIS_TYPE": 0, "CLASSIFICATION_TYPE": "U", "NORAD_CAT_ID": 30668, "ELEMENT_SET_NO": 999, "REV_AT_EPOCH": 96252, "BSTAR": 0.0016866508, "MEAN_MOTION_DOT": 3.161e-05, "MEAN_MOTION_DDOT": 0}, "tle": {"line1": "1 30668U 99025AQA 25360.70197678  .00003161  00000+0  16867-2 0  9999", "line2": "2 30668  99.1307  74.0220 0080035 207.5200 306.7408 14.12415102962524"}}, "geometry": {"type": "Point", "coordinates": [-109.7978454999887, -25.54008045778039]}}, {"type": "Feature", "properties": {"norad_id": 30669, "name": "FENGYUN 1C DEB", "group": "fengyun-1c-debris", "lat": 60.81723373875938, "lon": 132.99479449687388, "alt_km": 796.0776264677397, "timestamp": "2025-12-27T06:41:31.204379+00:00", "meta": {"OBJECT_NAME": "FENGYUN 1C DEB", "OBJECT_ID": "1999-025AQB", "EPOCH": "2025-12-26T18:27:24.685344", "MEAN_MOTION": 14.02782622, "ECCENTRICITY": 0.01184409, "INCLINATION": 98.6367, "RA_OF_ASC_NODE": 296.7195, "ARG_OF_PERICENTER": 136.8531, "MEAN_ANOMALY": 288.4244, "EPHEMERIS_TYPE": 0, "CLASSIFICATION_TYPE": "U", "NORAD_CAT_ID": 30669, "ELEMENT_SET_NO": 999, "REV_AT_EPOCH": 95650, "BSTAR": 0.0014668672, "MEAN_MOTION_DOT": 2.373e-05, "MEAN_MOTION_DDOT": 0}, "tle": {"line1": "1 30669U 99025AQB 25360.76903571  .00002373  00000+0  14669-2 0  9995", "line2": "2 30669  98.6367 296.7195 0118440 136.8531 288.4244 14.02782622956500"}}, "geometry": {"type": "Point", "coordinates": [132.99479449687388, 60.81723373875938]}}, {"type": "Feature", "properties": {"norad_id": 30670, "name": "FENGYUN 1C DEB", "group": "fengyun-1c-debris", "lat": 4.750199473059511, "lon": 44.64967891829688, "alt_km": 815.7256501726088, "timestamp": "2025-12-27T06:41:31.204389+00:00", "meta": {"OBJECT_NAME": "FENGYUN 1C DEB", "OBJECT_ID": "1999-025AQC", "EPOCH": "2025-12-26T02:05:28.749120", "MEAN_MOTION": 14.15822695, "ECCENTRICITY": 0.00394046, "INCLINATION": 98.7089, "RA_OF_ASC_NODE": 44.2149, "ARG_OF_PERICENTER": 32.0747, "MEAN_ANOMALY": 22.4128, "EPHEMERIS_TYPE": 0, "CLASSIFICATION_TYPE": "U", "NORAD_CAT_ID": 30670, "ELEMENT_SET_NO": 999, "REV_AT_EPOCH": 97341, "BSTAR": 9.567948e-05, "MEAN_MOTION_DOT": 1.46e-06, "MEAN_MOTION_DDOT": 0}, "tle": {"line1": "1 30670U 99025AQC 25360.08713830  .00000146  00000+0  95679-4 0  9997", "line2": "2 30670  98.7089  44.2149 0039404  32.0747  22.4128 14.15822695973412"}}, "geometry": {"type": "Point", "coordinates": [44.64967891829688, 4.750199473059511]}}, {"type": "Feature", "properties": {"norad_id": 30671, "name": "FENGYUN 1C DEB", "group": "fengyun-1c-debris", "lat": -13.830215285583208, "lon": 68.34320959732028, "alt_km": 822.9904429788849, "timestamp": "2025-12-27T06:41:31.204399+00:00", "meta": {"OBJECT_NAME": "FENGYUN 1C DEB", "OBJECT_ID": "1999-025AQD", "EPOCH": "2025-12-26T03:22:26.992416", "MEAN_MOTION": 13.95505723, "ECCENTRICITY": 0.0125669, "INCLINATION": 99.2516, "RA_OF_ASC_NODE": 64.9013, "ARG_OF_PERICENTER": 356.4769, "MEAN_ANOMALY": 34.5639, "EPHEMERIS_TYPE": 0, "CLASSIFICATION_TYPE": "U", "NORAD_CAT_ID": 30671, "ELEMENT_SET_NO": 999, "REV_AT_EPOCH": 95382, "BSTAR": 0.0011434066, "MEAN_MOTION_DOT": 1.613e-05, "MEAN_MOTION_DDOT": 0}, "tle": {"line1": "1 30671U 99025AQD 25360.14059019  .00001613  00000+0  11434-2 0  9992", "line2": "2 30671  99.2516  64.9013 0125669 356.4769  34.5639 13.95505723953820"}}, "geometry": {"type": "Point", "coordinates": [68.34320959732028, -13.830215285583208]}}, {"type": "Feature", "properties": {"norad_id": 30673, "name": "FENGYUN 1C DEB", "group": "fengyun-1c-debris", "lat": -41.288112821832605, "lon": -137.76882650468022, "alt_km": 906.7223412797493, "timestamp": "2025-12-27T06:41:31.204420+00:00", "meta": {"OBJECT_NAME": "FENGYUN 1C DEB", "OBJECT_ID": "1999-025AQF", "EPOCH": "2025-12-26T19:39:54.582336", "MEAN_MOTION": 14.03458379, "ECCENTRICITY": 0.00527726, "INCLINATION": 98.9174, "RA_OF_ASC_NODE": 49.7057, "ARG_OF_PERICENTER": 104.1769, "MEAN_ANOMALY": 317.0308, "EPHEMERIS_TYPE": 0, "CLASSIFICATION_TYPE": "U", "NORAD_CAT_ID": 30673, "ELEMENT_SET_NO": 999, "REV_AT_EPOCH": 96729, "BSTAR": 9.3662434e-05, "MEAN_MOTION_DOT": 1.05e-06, "MEAN_MOTION_DDOT": 0}, "tle": {"line1": "1 30673U 99025AQF 25360.81938174  .00000105  00000+0  93662-4 0  9996", "line2": "2 30673  98.9174  49.7057 0052772 104.1769 317.0308 14.03458379967291"}}, "geometry": {"type": "Point", "coordinates": [-137.76882650468022, -41.288112821832605]}}, {"type": "Feature", "properties": {"norad_id": 30674, "name": "FENGYUN 1C DEB", "group": "fengyun-1c-debris", "lat": 25.504820853593124, "lon": 161.84740029728385, "alt_km": 581.0808095180455, "timestamp": "2025-12-27T06:41:31.204432+00:00", "meta": {"OBJECT_NAME": "FENGYUN 1C DEB", "OBJECT_ID": "1999-025AQG", "EPOCH": "2025-12-26T22:33:41.263488", "MEAN_MOTION": 14.97988155, "ECCENTRICITY": 0.00239452, "INCLINATION": 98.9378, "RA_OF_ASC_NODE": 165.7659, "ARG_OF_PERICENTER": 264.1922, "MEAN_ANOMALY": 95.6567, "EPHEMERIS_TYPE": 0, "CLASSIFICATION_TYPE": "U", "NORAD_CAT_ID": 30674, "ELEMENT_SET_NO": 999, "REV_AT_EPOCH": 97564, "BSTAR": 0.0095877991, "MEAN_MOTION_DOT": 0.00115569, "MEAN_MOTION_DDOT": 0}, "tle": {"line1": "1 30674U 99025AQG 25360.94006092  .00115569  00000+0  95878-2 0  9996", "line2": "2 30674  98.9378 165.7659 0023945 264.1922  95.6567 14.97988155975640"}}, "geometry": {"type": "Point", "coordinates": [161.84740029728385, 25.504820853593124]}}, {"type": "Feature", "properties": {"norad_id": 30675, "name": "FENGYUN 1C DEB", "group": "fengyun-1c-debris", "lat": 68.6697459940674, "lon": 57.186444389586406, "alt_km": 772.535695912542, "timestamp": "2025-12-27T06:41:31.204442+00:00", "meta": {"OBJECT_NAME": "FENGYUN 1C DEB", "OBJECT_ID": "1999-025AQH", "EPOCH": "2025-12-26T05:25:05.314944", "MEAN_MOTION": 14.27505797, "ECCENTRICITY": 0.0053497, "INCLINATION": 98.7537, "RA_OF_ASC_NODE": 79.3717, "ARG_OF_PERICENTER": 131.0193, "MEAN_ANOMALY": 291.2702, "EPHEMERIS_TYPE": 0, "CLASSIFICATION_TYPE": "U", "NORAD_CAT_ID": 30675, "ELEMENT_SET_NO": 999, "REV_AT_EPOCH": 97084, "BSTAR": 0.00163, "MEAN_MOTION_DOT": 4.024e-05, "MEAN_MOTION_DDOT": 0}, "tle": {"line1": "1 30675U 99025AQH 25360.22575596  .00004024  00000+0  16300-2 0  9994", "line2": "2 30675  98.7537  79.3717 0053497 131.0193 291.2702 14.27505797970840"}}, "geometry": {"type": "Point", "coordinates": [57.186444389586406, 68.6697459940674]}}]}